NORAD_CAT_ID,OBJECT_NAME,OBJECT_TYPE,EPOCH,MEAN_MOTION,ECCENTRICITY,INCLINATION,RA_OF_ASC_NODE,ARG_OF_PERICENTER,MEAN_ANOMALY,BSTAR,MEAN_MOTION_DOT,MEAN_MOTION_DDOT,TLE_LINE0,TLE_LINE1,TLE_LINE2,SEMIMAJOR_AXIS,PERIOD,APOGEE,PERIGEE,DECAYED
55751.0,STARLINK-5577,PAYLOAD,2023-12-17 14:11:50,14.98331397,0.0002999,69.9993,134.6578,267.2717,92.8098,8.0753e-05,8.71e-06,0.0,0 STARLINK-5577,1 55751U 23028L   23351.59155162  .00000871  00000-0  80753-4 0  9999,2 55751  69.9993 134.6578 0002999 267.2717  92.8098 14.98331397 44243,6950.189,96.107,574.138,569.969,0.0
55751.0,STARLINK-5577,PAYLOAD,2023-12-17 19:00:13,14.98334841,0.0002945,69.9995,134.1533,265.6085,94.4737,0.00011671,1.3e-05,0.0,0 STARLINK-5577,1 55751U 23028L   23351.79182819  .00001300  00000-0  11671-3 0  9990,2 55751  69.9995 134.1533 0002945 265.6085  94.4737 14.98334841 44270,6950.178,96.107,574.09,569.996,0.0
55751.0,STARLINK-5577,PAYLOAD,2023-12-18 14:13:50,14.9833521,0.0002704,70.0005,132.1349,251.5523,108.5342,5.3632e-05,5.47e-06,0.0,0 STARLINK-5577,1 55751U 23028L   23352.59294727  .00000547  00000-0  53632-4 0  9997,2 55751  70.0005 132.1349 0002704 251.5523 108.5342 14.98335210 44395,6950.177,96.107,573.921,570.162,0.0
55751.0,STARLINK-5577,PAYLOAD,2023-12-18 19:02:14,14.98335488,0.0002698,70.0002,131.6279,262.7718,97.3135,7.769e-05,8.34e-06,0.0,0 STARLINK-5577,1 55751U 23028L   23352.79322644  .00000834  00000-0  77690-4 0  9998,2 55751  70.0002 131.6279 0002698 262.7718  97.3135 14.98335488 44426,6950.176,96.107,573.916,570.166,0.0
55751.0,STARLINK-5577,PAYLOAD,2023-12-19 14:15:51,14.98329356,0.0002624,70.0008,129.611,251.1464,108.9411,-3.3171e-05,-4.89e-06,0.0,0 STARLINK-5577,1 55751U 23028L   23353.59435162 -.00000489  00000-0 -33171-4 0  9991,2 55751  70.0008 129.6110 0002624 251.1464 108.9411 14.98329356 44548,6950.195,96.107,573.884,570.236,0.0
55751.0,STARLINK-5577,PAYLOAD,2023-12-19 19:04:16,14.98331485,0.0002928,70.0004,129.1046,269.6756,90.4067,-2.7958e-06,-1.26e-06,0.0,0 STARLINK-5577,1 55751U 23028L   23353.79462989 -.00000126  00000-0 -27958-5 0  9995,2 55751  70.0004 129.1046 0002928 269.6756  90.4067 14.98331485 44573,6950.188,96.107,574.088,570.018,0.0
55751.0,STARLINK-5577,PAYLOAD,2023-12-20 11:05:37,14.98321612,0.0003112,70.0006,127.4206,272.3079,87.7724,3.0064e-05,2.66e-06,0.0,0 STARLINK-5577,1 55751U 23028L   23354.46223528  .00000266  00000-0  30064-4 0  9998,2 55751  70.0006 127.4206 0003112 272.3079  87.7724 14.98321612 44670,6950.219,96.108,574.247,569.921,0.0
55751.0,STARLINK-5577,PAYLOAD,2023-12-20 14:17:53,14.98324016,0.0002934,70.0004,127.0846,262.9466,97.1359,2.5401e-05,2.1e-06,0.0,0 STARLINK-5577,1 55751U 23028L   23354.59575385  .00000210  00000-0  25401-4 0  9991,2 55751  70.0004 127.0846 0002934 262.9466  97.1359 14.98324016 44692,6950.211,96.107,574.116,570.037,0.0
55751.0,STARLINK-5577,PAYLOAD,2023-12-20 19:06:17,14.98328948,0.0002687,70.0006,126.578,287.007,73.0794,0.00012026,1.342e-05,0.0,0 STARLINK-5577,1 55751U 23028L   23354.79603175  .00001342  00000-0  12026-3 0  9997,2 55751  70.0006 126.5780 0002687 287.0070  73.0794 14.98328948 44727,6950.196,96.107,573.929,570.194,0.0
55751.0,STARLINK-5577,PAYLOAD,2023-12-21 14:19:53,14.98329735,0.0002571,70.0007,124.5597,251.667,108.421,0.00010023,1.103e-05,0.0,0 STARLINK-5577,1 55751U 23028L   23355.59714816  .00001103  00000-0  10023-3 0  9991,2 55751  70.0007 124.5597 0002571 251.6670 108.4210 14.98329735 44841,6950.194,96.107,573.846,570.272,0.0
55751.0,STARLINK-5577,PAYLOAD,2023-12-21 15:56:01,14.98329746,0.0002853,69.9997,124.3901,267.0545,93.0287,8.6451e-05,9.39e-06,0.0,0 STARLINK-5577,1 55751U 23028L   23355.66390930  .00000939  00000-0  86451-4 0  9991,2 55751  69.9997 124.3901 0002853 267.0545  93.0287 14.98329746 44854,6950.194,96.107,574.042,570.076,0.0
55751.0,STARLINK-5577,PAYLOAD,2023-12-22 11:09:38,14.98327265,0.0002769,70.0005,122.3719,261.3147,98.7699,7.4179e-05,7.92e-06,0.0,0 STARLINK-5577,1 55751U 23028L   23356.46503165  .00000792  00000-0  74179-4 0  9997,2 55751  70.0005 122.3719 0002769 261.3147  98.7699 14.98327265 44979,6950.201,96.107,573.991,570.142,0.0
55751.0,STARLINK-5577,PAYLOAD,2023-12-22 14:21:54,14.98328379,0.0002689,70.0007,122.0354,257.0278,103.0581,8.2384e-05,8.9e-06,0.0,0 STARLINK-5577,1 55751U 23028L   23356.59855091  .00000890  00000-0  82384-4 0  9995,2 55751  70.0007 122.0354 0002689 257.0278 103.0581 14.98328379 44990,6950.198,96.107,573.932,570.194,0.0
55751.0,STARLINK-5577,PAYLOAD,2023-12-22 17:34:10,14.98329878,0.0002701,70.0006,121.6989,257.5363,102.5493,8.7159e-05,9.47e-06,0.0,0 STARLINK-5577,1 55751U 23028L   23356.73206993  .00000947  00000-0  87159-4 0  9990,2 55751  70.0006 121.6989 0002701 257.5363 102.5493 14.98329878 45018,6950.193,96.107,573.936,570.181,0.0
55751.0,STARLINK-5577,PAYLOAD,2023-12-23 11:11:39,14.9833055,0.0002655,70.0008,119.8478,256.5901,103.4962,2.7999e-05,2.41e-06,0.0,0 STARLINK-5577,1 55751U 23028L   23357.46643039  .00000241  00000-0  27999-4 0  9990,2 55751  70.0008 119.8478 0002655 256.5901 103.4962 14.98330550 45129,6950.191,96.107,573.901,570.211,0.0
55751.0,STARLINK-5577,PAYLOAD,2023-12-23 14:23:55,14.9833,0.0002677,70.0008,119.511,255.6804,104.4057,1.9922e-05,1.45e-06,0.0,0 STARLINK-5577,1 55751U 23028L   23357.59995094  .00000145  00000-0  19922-4 0  9995,2 55751  70.0008 119.5110 0002677 255.6804 104.4057 14.98330000 45143,6950.193,96.107,573.918,570.197,0.0
55751.0,STARLINK-5577,PAYLOAD,2023-12-23 17:36:11,14.98330621,0.0002677,70.0007,119.1742,257.5835,102.5025,2.4379e-05,1.98e-06,0.0,0 STARLINK-5577,1 55751U 23028L   23357.73347041  .00000198  00000-0  24379-4 0  9994,2 55751  70.0007 119.1742 0002677 257.5835 102.5025 14.98330621 45169,6950.191,96.107,573.917,570.195,0.0
55751.0,STARLINK-5577,PAYLOAD,2023-12-24 11:13:40,14.9833298,0.0002782,70.0005,117.3222,258.4783,101.6064,4.7169e-05,4.7e-06,0.0,0 STARLINK-5577,1 55751U 23028L   23358.46782751  .00000470  00000-0  47169-4 0  9991,2 55751  70.0005 117.3222 0002782 258.4783 101.6064 14.98332980 45274,6950.184,96.107,573.982,570.115,0.0
55751.0,STARLINK-5577,PAYLOAD,2023-12-24 14:25:56,14.98333045,0.0002779,70.0005,116.9856,257.7527,102.3321,4.6493e-05,4.62e-06,0.0,0 STARLINK-5577,1 55751U 23028L   23358.60134714  .00000462  00000-0  46493-4 0  9997,2 55751  70.0005 116.9856 0002779 257.7527 102.3321 14.98333045 45295,6950.183,96.107,573.98,570.117,0.0
55751.0,STARLINK-5577,PAYLOAD,2023-12-24 17:38:12,14.98334798,0.0002757,70.0006,116.6491,257.7847,102.3004,6.522e-05,6.85e-06,0.0,0 STARLINK-5577,1 55751U 23028L   23358.73486525  .00000685  00000-0  65220-4 0  9997,2 55751  70.0006 116.6491 0002757 257.7847 102.3004 14.98334798 45316,6950.178,96.107,573.959,570.127,0.0
55751.0,STARLINK-5577,PAYLOAD,2023-12-25 11:15:41,14.98330029,0.0002724,70.0008,114.7979,256.2711,103.8145,3.6509e-05,3.43e-06,0.0,0 STARLINK-5577,1 55751U 23028L   23359.46922827  .00000343  00000-0  36509-4 0  9997,2 55751  70.0008 114.7979 0002724 256.2711 103.8145 14.98330029 45423,6950.193,96.107,573.951,570.165,0.0
55751.0,STARLINK-5577,PAYLOAD,2023-12-25 14:27:57,14.98329964,0.0002722,70.0007,114.4612,255.5954,104.4903,3.4114e-05,3.14e-06,0.0,0 STARLINK-5577,1 55751U 23028L   23359.60274824  .00000314  00000-0  34114-4 0  9998,2 55751  70.0007 114.4612 0002722 255.5954 104.4903 14.98329964 45449,6950.193,96.107,573.95,570.166,0.0
55751.0,STARLINK-5577,PAYLOAD,2023-12-25 17:40:13,14.98330524,0.0002729,70.0007,114.1244,257.6488,102.4365,3.7752e-05,3.58e-06,0.0,0 STARLINK-5577,1 55751U 23028L   23359.73626780  .00000358  00000-0  37752-4 0  9993,2 55751  70.0007 114.1244 0002729 257.6488 102.4365 14.98330524 45465,6950.191,96.107,573.953,570.16,0.0
55751.0,STARLINK-5577,PAYLOAD,2023-12-26 11:17:42,14.98328514,0.0002611,70.0011,112.2735,254.3856,105.7015,-1.324e-05,-2.51e-06,0.0,0 STARLINK-5577,1 55751U 23028L   23360.47063087 -.00000251  00000-0 -13240-4 0  9991,2 55751  70.0011 112.2735 0002611 254.3856 105.7015 14.98328514 45573,6950.197,96.107,573.877,570.248,0.0
55751.0,STARLINK-5577,PAYLOAD,2023-12-26 14:29:58,14.98328867,0.00026,70.0011,111.937,253.9597,106.1276,-8.0596e-06,-1.89e-06,0.0,0 STARLINK-5577,1 55751U 23028L   23360.60415052 -.00000189  00000-0 -80596-5 0  9998,2 55751  70.0011 111.9370 0002600 253.9597 106.1276 14.98328867 45596,6950.196,96.107,573.868,570.254,0.0
55751.0,STARLINK-5577,PAYLOAD,2023-12-26 17:42:14,14.98329258,0.0002604,70.0011,111.6002,256.3347,103.7522,-5.7605e-06,-1.62e-06,0.0,0 STARLINK-5577,1 55751U 23028L   23360.73767037 -.00000162  00000-0 -57605-5 0  9991,2 55751  70.0011 111.6002 0002604 256.3347 103.7522 14.98329258 45614,6950.195,96.107,573.87,570.25,0.0
55751.0,STARLINK-5577,PAYLOAD,2023-12-27 11:19:43,14.98330498,0.0002671,70.0006,109.7471,261.7687,98.3169,5.092e-05,5.15e-06,0.0,0 STARLINK-5577,1 55751U 23028L   23361.47202806  .00000515  00000-0  50920-4 0  9993,2 55751  70.0006 109.7471 0002671 261.7687  98.3169 14.98330498 45723,6950.191,96.107,573.913,570.2,0.0
55751.0,STARLINK-5577,PAYLOAD,2023-12-27 14:31:59,14.98331572,0.0002635,70.0007,109.4105,260.7923,99.2938,6.4987e-05,6.83e-06,0.0,0 STARLINK-5577,1 55751U 23028L   23361.60554707  .00000683  00000-0  64987-4 0  9992,2 55751  70.0007 109.4105 0002635 260.7923  99.2938 14.98331572 45747,6950.188,96.107,573.884,570.222,0.0
55751.0,STARLINK-5577,PAYLOAD,2023-12-27 17:44:15,14.98333428,0.0002654,70.0007,109.074,263.3765,96.7092,8.1132e-05,8.75e-06,0.0,0 STARLINK-5577,1 55751U 23028L   23361.73906549  .00000875  00000-0  81132-4 0  9995,2 55751  70.0007 109.0740 0002654 263.3765  96.7092 14.98333428 45769,6950.182,96.107,573.892,570.203,0.0
55751.0,STARLINK-5577,PAYLOAD,2023-12-28 11:21:44,14.98326192,0.0002661,70.0007,107.2224,266.2468,93.8387,1.8354e-05,1.26e-06,0.0,0 STARLINK-5577,1 55751U 23028L   23362.47343222  .00000126  00000-0  18354-4 0  9995,2 55751  70.0007 107.2224 0002661 266.2468  93.8387 14.98326192 45873,6950.205,96.107,573.919,570.22,0.0
